{"type": "FeatureCollection", "features": [ {"type": "Feature", "properties": {"norad_id": 66531, "name": "STARLINK-35960", "group": "last-30-days", "lat": -7.326205001384194, "lon": 90.52292839598312, "alt_km": 356.336113428667, "timestamp": "2025-12-05T04:52:14.142285+00:00", "meta": {"OBJECT_NAME": "STARLINK-35960", "OBJECT_ID": "2025-265R", "EPOCH": "2025-12-04T18:00:02.000160", "MEAN_MOTION": 15.727441, "ECCENTRICITY": 0.0001581, "INCLINATION": 42.9999, "RA_OF_ASC_NODE": 101.1888, "ARG_OF_PERICENTER": 277.6115, "MEAN_ANOMALY": 25.6788, "EPHEMERIS_TYPE": 0, "CLASSIFICATION_TYPE": "U", "NORAD_CAT_ID": 66531, "ELEMENT_SET_NO": 999, "REV_AT_EPOCH": 371, "BSTAR": -0.015015, "MEAN_MOTION_DOT": -0.01825462, "MEAN_MOTION_DDOT": 0}, "tle": {"line1": "1 66531U 25265R   25338.75002315 -.01825462  00000+0 -15015-1 0  9997", "line2": "2 66531  42.9999 101.1888 0001581 277.6115  25.6788 15.72744100  3714"}}, "geometry": {"type": "Point", "coordinates": [90.52292839598312, -7.326205001384194]}}, {"type": "Feature", "properties": {"norad_id": 66532, "name": "STARLINK-35914", "group": "last-30-days", "lat": -6.029753204020877, "lon": 91.939838986647, "alt_km": 356.3342502072619, "timestamp": "2025-12-05T04:52:14.142294+00:00", "meta": {"OBJECT_NAME": "STARLINK-35914", "OBJECT_ID": "2025-265S", "EPOCH": "2025-12-04T18:00:02.000160", "MEAN_MOTION": 15.72745066, "ECCENTRICITY": 0.0001373, "INCLINATION": 42.9998, "RA_OF_ASC_NODE": 101.184, "ARG_OF_PERICENTER": 275.0973, "MEAN_ANOMALY": 30.1127, "EPHEMERIS_TYPE": 0, "CLASSIFICATION_TYPE": "U", "NORAD_CAT_ID": 66532, "ELEMENT_SET_NO": 999, "REV_AT_EPOCH": 371, "BSTAR": -0.015039, "MEAN_MOTION_DOT": -0.01827856, "MEAN_MOTION_DDOT": 0}, "tle": {"line1": "1 66532U 25265S   25338.75002315 -.01827856  00000+0 -15039-1 0  9993", "line2": "2 66532  42.9998 101.1840 0001373 275.0973  30.1127 15.72745066  3715"}}, "geometry": {"type": "Point", "coordinates": [91.939838986647, -6.029753204020877]}}, {"type": "Feature", "properties": {"norad_id": 66533, "name": "STARLINK-35707", "group": "last-30-days", "lat": -4.731078262661682, "lon": 93.3487436221613, "alt_km": 356.05131135753345, "timestamp": "2025-12-05T04:52:14.142316+00:00", "meta": {"OBJECT_NAME": "STARLINK-35707", "OBJECT_ID": "2025-265T", "EPOCH": "2025-12-04T18:00:02.000160", "MEAN_MOTION": 15.72744305, "ECCENTRICITY": 0.0001411, "INCLINATION": 42.9999, "RA_OF_ASC_NODE": 101.1795, "ARG_OF_PERICENTER": 281.798, "MEAN_ANOMALY": 25.327, "EPHEMERIS_TYPE": 0, "CLASSIFICATION_TYPE": "U", "NORAD_CAT_ID": 66533, "ELEMENT_SET_NO": 999, "REV_AT_EPOCH": 371, "BSTAR": -0.015022, "MEAN_MOTION_DOT": -0.01826018, "MEAN_MOTION_DDOT": 0}, "tle": {"line1": "1 66533U 25265T   25338.75002315 -.01826018  00000+0 -15022-1 0  9995", "line2": "2 66533  42.9999 101.1795 0001411 281.7980  25.3270 15.72744305  3711"}}, "geometry": {"type": "Point", "coordinates": [93.3487436221613, -4.731078262661682]}}, {"type": "Feature", "properties": {"norad_id": 66534, "name": "STARLINK-35976", "group": "last-30-days", "lat": -3.42668581412123, "lon": 94.7555632689232, "alt_km": 355.849273302033, "timestamp": "2025-12-05T04:52:14.142326+00:00", "meta": {"OBJECT_NAME": "STARLINK-35976", "OBJECT_ID": "2025-265U", "EPOCH": "2025-12-04T18:00:02.000160", "MEAN_MOTION": 15.72744018, "ECCENTRICITY": 0.0001602, "INCLINATION": 43.0002, "RA_OF_ASC_NODE": 101.1751, "ARG_OF_PERICENTER": 283.1593, "MEAN_ANOMALY": 25.8821, "EPHEMERIS_TYPE": 0, "CLASSIFICATION_TYPE": "U", "NORAD_CAT_ID": 66534, "ELEMENT_SET_NO": 999, "REV_AT_EPOCH": 371, "BSTAR": -0.015011, "MEAN_MOTION_DOT": -0.01824974, "MEAN_MOTION_DDOT": 0}, "tle": {"line1": "1 66534U 25265U   25338.75002315 -.01824974  00000+0 -15011-1 0  9993", "line2": "2 66534  43.0002 101.1751 0001602 283.1593  25.8821 15.72744018  3717"}}, "geometry": {"type": "Point", "coordinates": [94.7555632689232, -3.42668581412123]}}, {"type": "Feature", "properties": {"norad_id": 66535, "name": "STARLINK-35514", "group": "last-30-days", "lat": -2.121506924198075, "lon": 96.15629291750582, "alt_km": 355.7280484330704, "timestamp": "2025-12-05T04:52:14.142337+00:00", "meta": {"OBJECT_NAME": "STARLINK-35514", "OBJECT_ID": "2025-265V", "EPOCH": "2025-12-04T18:00:02.000160", "MEAN_MOTION": 15.72744341, "ECCENTRICITY": 0.0001556, "INCLINATION": 43.0002, "RA_OF_ASC_NODE": 101.1699, "ARG_OF_PERICENTER": 283.5097, "MEAN_ANOMALY": 27.4487, "EPHEMERIS_TYPE": 0, "CLASSIFICATION_TYPE": "U", "NORAD_CAT_ID": 66535, "ELEMENT_SET_NO": 999, "REV_AT_EPOCH": 371, "BSTAR": -0.015012, "MEAN_MOTION_DOT": -0.01825116, "MEAN_MOTION_DDOT": 0}, "tle": {"line1": "1 66535U 25265V   25338.75002315 -.01825116  00000+0 -15012-1 0  9994", "line2": "2 66535  43.0002 101.1699 0001556 283.5097  27.4487 15.72744341  3715"}}, "geometry": {"type": "Point", "coordinates": [96.15629291750582, -2.121506924198075]}}, {"type": "Feature", "properties": {"norad_id": 66536, "name": "STARLINK-35640", "group": "last-30-days", "lat": -0.8174108841013559, "lon": 97.55292610022471, "alt_km": 355.67342690156147, "timestamp": "2025-12-05T04:52:14.142347+00:00", "meta": {"OBJECT_NAME": "STARLINK-35640", "OBJECT_ID": "2025-265W", "EPOCH": "2025-12-04T18:00:02.000160", "MEAN_MOTION": 15.72743385, "ECCENTRICITY": 0.0001277, "INCLINATION": 43.0002, "RA_OF_ASC_NODE": 101.1655, "ARG_OF_PERICENTER": 282.9067, "MEAN_ANOMALY": 29.97, "EPHEMERIS_TYPE": 0, "CLASSIFICATION_TYPE": "U", "NORAD_CAT_ID": 66536, "ELEMENT_SET_NO": 999, "REV_AT_EPOCH": 369, "BSTAR": -0.015016, "MEAN_MOTION_DOT": -0.01825224, "MEAN_MOTION_DDOT": 0}, "tle": {"line1": "1 66536U 25265W   25338.75002315 -.01825224  00000+0 -15016-1 0  9999", "line2": "2 66536  43.0002 101.1655 0001277 282.9067  29.9700 15.72743385  3697"}}, "geometry": {"type": "Point", "coordinates": [97.55292610022471, -0.8174108841013559]}}, {"type": "Feature", "properties": {"norad_id": 66537, "name": "STARLINK-35582", "group": "last-30-days", "lat": 0.49234419001167334, "lon": 98.95358131139648, "alt_km": 355.54357224901923, "timestamp": "2025-12-05T04:52:14.142358+00:00", "meta": {"OBJECT_NAME": "STARLINK-35582", "OBJECT_ID": "2025-265X", "EPOCH": "2025-12-04T18:00:02.000160", "MEAN_MOTION": 15.72752991, "ECCENTRICITY": 0.0001519, "INCLINATION": 43.0004, "RA_OF_ASC_NODE": 101.1605, "ARG_OF_PERICENTER": 280.9947, "MEAN_ANOMALY": 33.792, "EPHEMERIS_TYPE": 0, "CLASSIFICATION_TYPE": "U", "NORAD_CAT_ID": 66537, "ELEMENT_SET_NO": 999, "REV_AT_EPOCH": 371, "BSTAR": -0.015091, "MEAN_MOTION_DOT": -0.01834073, "MEAN_MOTION_DDOT": 0}, "tle": {"line1": "1 66537U 25265X   25338.75002315 -.01834073  00000+0 -15091-1 0  9995", "line2": "2 66537  43.0004 101.1605 0001519 280.9947  33.7920 15.72752991  3712"}}, "geometry": {"type": "Point", "coordinates": [98.95358131139648, 0.49234419001167334]}}, {"type": "Feature", "properties": {"norad_id": 66538, "name": "STARLINK-35577", "group": "last-30-days", "lat": 1.7991256191184704, "lon": 100.35182799144431, "alt_km": 355.3864843797837, "timestamp": "2025-12-05T04:52:14.142366+00:00", "meta": {"OBJECT_NAME": "STARLINK-35577", "OBJECT_ID": "2025-265Y", "EPOCH": "2025-12-04T18:00:02.000160", "MEAN_MOTION": 15.72744715, "ECCENTRICITY": 0.0001498, "INCLINATION": 43.0004, "RA_OF_ASC_NODE": 101.1554, "ARG_OF_PERICENTER": 282.0304, "MEAN_ANOMALY": 34.6794, "EPHEMERIS_TYPE": 0, "CLASSIFICATION_TYPE": "U", "NORAD_CAT_ID": 66538, "ELEMENT_SET_NO": 999, "REV_AT_EPOCH": 371, "BSTAR": -0.015018, "MEAN_MOTION_DOT": -0.01825678, "MEAN_MOTION_DDOT": 0}, "tle": {"line1": "1 66538U 25265Y   25338.75002315 -.01825678  00000+0 -15018-1 0  9996", "line2": "2 66538  43.0004 101.1554 0001498 282.0304  34.6794 15.72744715  3716"}}, "geometry": {"type": "Point", "coordinates": [100.35182799144431, 1.7991256191184704]}}, {"type": "Feature", "properties": {"norad_id": 66539, "name": "STARLINK-35697", "group": "last-30-days", "lat": 3.103782197424649, "lon": 101.75084852758468, "alt_km": 355.380783319436, "timestamp": "2025-12-05T04:52:14.142375+00:00", "meta": {"OBJECT_NAME": "STARLINK-35697", "OBJECT_ID": "2025-265Z", "EPOCH": "2025-12-04T18:00:02.000160", "MEAN_MOTION": 15.72745683, "ECCENTRICITY": 0.0001281, "INCLINATION": 43.0004, "RA_OF_ASC_NODE": 101.1502, "ARG_OF_PERICENTER": 277.6107, "MEAN_ANOMALY": 41.0173, "EPHEMERIS_TYPE": 0, "CLASSIFICATION_TYPE": "U", "NORAD_CAT_ID": 66539, "ELEMENT_SET_NO": 999, "REV_AT_EPOCH": 371, "BSTAR": -0.015042, "MEAN_MOTION_DOT": -0.01828146, "MEAN_MOTION_DDOT": 0}, "tle": {"line1": "1 66539U 25265Z   25338.75002315 -.01828146  00000+0 -15042-1 0  9997", "line2": "2 66539  43.0004 101.1502 0001281 277.6107  41.0173 15.72745683  3719"}}, "geometry": {"type": "Point", "coordinates": [101.75084852758468, 3.103782197424649]}}, {"type": "Feature", "properties": {"norad_id": 66540, "name": "STARLINK-35818", "group": "last-30-days", "lat": 4.40969205040865, "lon": 103.15753585859365, "alt_km": 355.027647029081, "timestamp": "2025-12-05T04:52:14.142384+00:00", "meta": {"OBJECT_NAME": "STARLINK-35818", "OBJECT_ID": "2025-265AA", "EPOCH": "2025-12-04T18:00:02.000160", "MEAN_MOTION": 15.72743604, "ECCENTRICITY": 0.0001643, "INCLINATION": 43.0002, "RA_OF_ASC_NODE": 101.1458, "ARG_OF_PERICENTER": 284.5709, "MEAN_ANOMALY": 35.9723, "EPHEMERIS_TYPE": 0, "CLASSIFICATION_TYPE": "U", "NORAD_CAT_ID": 66540, "ELEMENT_SET_NO": 999, "REV_AT_EPOCH": 371, "BSTAR": -0.014999, "MEAN_MOTION_DOT": -0.01823762, "MEAN_MOTION_DDOT": 0}, "tle": {"line1": "1 66540U 25265AA  25338.75002315 -.01823762  00000+0 -14999-1 0  9998", "line2": "2 66540  43.0002 101.1458 0001643 284.5709  35.9723 15.72743604  3710"}}, "geometry": {"type": "Point", "coordinates": [103.15753585859365, 4.40969205040865]}}]}